name,address,lng,lat
國立政治大學,[116]臺北市文山區指南路二段64號,121.5761281,24.9873313
國立清華大學,[300]新竹市東區光復路二段101號,120.9910396,24.7979773
國立臺灣大學,[106]臺北市大安區羅斯福路四段1號,121.5397264,25.0186526
國立臺灣師範大學,[106]臺北市大安區和平東路一段162號,121.5274888,25.0259513
國立成功大學,[701]臺南市東區大學路1號,120.2192745,22.9940267
國立中興大學,[402]臺中市南區興大路145號,120.6774162,24.124167
國立交通大學,[300]新竹市東區大學路1001號,120.9999097,24.7859852
國立中央大學,[320]桃園市中壢區中大路300號,121.1956658,24.96842
國立中山大學,[804]高雄市鼓山區蓮海路70號,120.2674102,22.6270179
國立臺灣海洋大學,[202]基隆市中正區北寧路2號,121.7724527,25.1508704
國立中正大學,[621]嘉義縣民雄鄉三興村7鄰大學路一段168號,120.473388,23.561461
國立高雄師範大學,[802]高雄市苓雅區和平一路116號,120.3207609,22.6259166
國立彰化師範大學,[500]彰化縣彰化市進德路1號,120.5584256,24.0826667
國立陽明大學,[112]臺北市北投區立農街二段155號,121.5133357,25.1196326
國立臺北大學,[237]新北市三峽區大學路151號,121.3717858,24.9455821
國立嘉義大學,[600]嘉義市東區鹿寮里學府路300號,120.4836329,23.465364
國立高雄大學,[811]高雄市楠梓區高雄大學路700號,120.2851781,22.7344154
國立東華大學,[974]花蓮縣壽豐鄉志學村大學路二段1號,121.5433333,23.8943519
國立暨南國際大學,[545]南投縣埔里鎮大學路1號,120.9268734,23.9492528
國立臺灣科技大學,[106]臺北市大安區基隆路四段43號,121.5411187,25.0132497
國立雲林科技大學,[640]雲林縣斗六市大學路三段123號,120.5340119,23.6958498
國立屏東科技大學,[912]屏東縣內埔鄉老埤村學府路1號,120.609966,22.64303
國立臺北科技大學,[106]臺北市大安區忠孝東路三段1號,121.5382938,25.0420753
國立高雄第一科技大學,[824]高雄市燕巢區大學路1號 ,120.335061,22.7556941
國立高雄應用科技大學,[807]高雄市三民區建工路415號,120.3286936,22.6512281
國立臺北藝術大學,[112]臺北市北投區學園路1號,121.4693489,25.1324572
國立臺灣藝術大學,[220]新北市板橋區大觀路一段59號,121.4476306,25.0059488
國立臺東大學,[950]臺東縣臺東市大學路二段369號,121.0675869,22.7356392
國立宜蘭大學,[260]宜蘭縣宜蘭市神農路一段1號,121.747584,24.7462934
國立聯合大學,[360]苗栗縣苗栗市恭敬里聯大1號,120.81232,24.5458044
國立虎尾科技大學,[632]雲林縣虎尾鎮文化路64號,120.4301509,23.7031081
國立高雄海洋科技大學,[811]高雄市楠梓區海專路142號,120.314634,22.7247406
國立臺南藝術大學,[720]臺南市官田區大崎里66號,120.374319,23.186013
國立臺南大學,[700]臺南市中西區樹林街二段33號,120.2082213,22.9851566
國立臺北教育大學,[106]臺北市大安區和平東路二段134號,121.5446374,25.0246244
國立清華大學南大校區,[300]新竹市東區南大路521號,120.9650979,24.7945248
國立臺中教育大學,[403]臺中市西區民生路140號,120.672099,24.1421547
國立澎湖科技大學,[880]澎湖縣馬公市六合路300號,119.580949,23.575495
國立勤益科技大學,[411]臺中市太平區坪林里中山路二段57號,120.7333578,24.1465581
國立體育大學,[333]桃園市龜山區文化一路250號,121.3836827,25.0348848
國立臺北護理健康大學,[112]臺北市北投區明德路365號,121.5200316,25.1177379
國立高雄餐旅大學,[812]高雄市小港區松和路1號,120.371636,22.565738
國立金門大學,[892]金門縣金寧鄉大學路1號,118.325279,24.446675
國立臺灣體育運動大學,[404]臺中市北區雙十路一段16號,120.6874206,24.1489449
國立臺中科技大學,[404]臺中市北區三民路三段129號,120.6839638,24.1500235
國立臺北商業大學,[100]臺北市中正區濟南路一段321號,121.5256616,25.0418977
國立屏東大學,[900]屏東縣屏東市民生路4-18號,120.5045457,22.665476
東海大學,[407]臺中市西屯區臺灣大道四段1727號,120.602728,24.1824159
輔仁大學,[242]新北市新莊區中正路510號,121.433255,25.0336491
東吳大學,[111]臺北市士林區臨溪路70號,121.545748,25.094415
中原大學,[320]桃園市中壢區中北路200號,121.240539,24.9574977
淡江大學,[251]新北市淡水區英專路151號,121.4483442,25.1731385
中國文化大學,[111]臺北市士林區華岡路55號,121.5410056,25.1377176
逢甲大學,[407]臺中市西屯區文華路100號,120.6464147,24.1816347
靜宜大學,[433]臺中市沙鹿區臺灣大道7段200號,120.5797081,24.2263848
長庚大學,[333]桃園市龜山區文化一路259號,121.3874884,25.0334238
元智大學,[320]桃園市中壢區遠東路135號,121.263482,24.9701475
中華大學,[300]新竹市香山區東香里五福路二段707號,120.9526109,24.7569467
大葉大學,[515]彰化縣大村鄉學府路168號,120.5947144,23.9992038
華梵大學,[223]新北市石碇區華梵路1號,121.692123,24.980779
義守大學,[840]高雄市大樹區三和里學城路一段1號,120.4069259,22.7296392
世新大學,[116]臺北市文山區木柵路一段17巷1號,121.5425268,24.9884933
銘傳大學,[111]臺北市士林區中山北路五段250號,121.5275514,25.0860676
實踐大學,[104]臺北市中山區大直街70號,121.5457421,25.0846197
朝陽科技大學,[413]臺中市霧峰區吉峰東路168號,120.7154143,24.0728212
高雄醫學大學,[807]高雄市三民區十全一路100號,120.3102147,22.6453863
南華大學,[622]嘉義縣大林鎮南華路一段55號,120.4943064,23.5693126
真理大學,[251]新北市淡水區真理街32號,121.4346021,25.1755872
大同大學,[104]臺北市中山區中山北路三段40號,121.521804,25.0671544
南臺科技大學,[710]臺南市永康區尚頂里南臺街1號,120.2252883,23.0225666
崑山科技大學,[710]臺南市永康區崑大路195號,120.254558,22.9984109
嘉南藥理大學,[717]臺南市仁德區二仁路一段60號,120.2226712,22.9250213
樹德科技大學,[824]高雄市燕巢區橫山路59號,120.3764731,22.7640607
慈濟大學,[970]花蓮縣花蓮市中央路三段701號,121.5912413,23.9928935
臺北醫學大學,[110]臺北市信義區吳興街250號,121.5612122,25.0258406
中山醫學大學,[402]臺中市南區建國北路一段110號,120.6517604,24.1217915
龍華科技大學,[333]桃園市龜山區萬壽路一段300號,121.4028529,25.0175193
輔英科技大學,[831]高雄市大寮區進學路151號,120.3896885,22.6026893
明新科技大學,[304]新竹縣新豐鄉新興路1號,120.9912167,24.8638512
長榮大學,[711]臺南市歸仁區長大路1號,120.2733366,22.907836
弘光科技大學,[433]臺中市沙鹿區臺灣大道六段1018號,120.5808091,24.2173159
中國醫藥大學,[404]臺中市北區學士路91號,120.681125,24.155899
健行科技大學,[320]桃園市中壢區健行路229號,121.228276,24.9478097
正修科技大學,[833]高雄市鳥松區澄清路840號,120.3485347,22.6504546
萬能科技大學,[320]桃園市中壢區萬能路1號,121.2323797,24.9906068
玄奘大學,[300]新竹市香山區東香里玄奘路48號,120.943289,24.7743486
建國科技大學,[500]彰化縣彰化市介壽北路1號,120.5500577,24.0662461
明志科技大學,[243]新北市泰山區貴子里工專路84號 ,121.4222651,25.0410187
高苑科技大學,[821]高雄市路竹區中山路1821號,120.2646319,22.8409222
大仁科技大學,[907]屏東縣鹽埔鄉新二村維新路20號,120.5421113,22.7266921
聖約翰科技大學,[251]新北市淡水區淡金路四段499號,121.4516535,25.2269693
嶺東科技大學,[408]臺中市南屯區嶺東路1號,120.6096728,24.1378074
中國科技大學,[116]臺北市文山區興隆路三段56號,121.5553747,24.9991431
中臺科技大學,[406]臺中市北屯區?子路666號,120.736065,24.1725268
亞洲大學,[413]臺中市霧峰區柳豐路500號,120.6885757,24.043676
開南大學,[338]桃園市蘆竹區開南路1號,121.270208,25.0113673
佛光大學,[262]宜蘭縣礁溪鄉林美村林尾路160號,121.7220999,24.8162257
台南應用科技大學,[710]臺南市永康區中正路529號,120.2390574,23.0394245
遠東科技大學,[744]臺南市新市區中華路49號,120.294524,23.0642559
元培醫事科技大學,[300]新竹市香山區元培街306號,120.9404076,24.7777953
景文科技大學,[231]新北市新店區安忠路99號,121.5092798,24.9529572
中華醫事科技大學,[717]臺南市仁德區文華一街89號,120.243631,22.960882
東南科技大學,[222]新北市深坑區北深路三段152號,121.6044447,25.003296
德明財經科技大學,[114]臺北市內湖區環山路一段56號,121.5652249,25.0867061
明道大學,[523]彰化縣埤頭鄉文化路369號,120.4947373,23.8693433
南開科技大學,[542]南投縣草屯鎮中正路568號,120.696843,23.9792331
中華科技大學,[115]臺北市南港區研究院路三段245號,121.6098889,25.0335957
僑光科技大學,[407]臺中市西屯區僑光路100號,120.6440635,24.1894633
育達科技大學,[361]苗栗縣造橋鄉談文村學府路168號,120.84231,24.6509694
美和科技大學,[912]屏東縣內埔鄉美和村屏光路23號,120.560668,22.603895
吳鳳科技大學,[621]嘉義縣民雄鄉建國路二段117號,120.4361519,23.5358143
環球科技大學,[640]雲林縣斗六市嘉東里鎮南路1221號,120.5556315,23.6803656
台灣首府大學,[721]臺南市麻豆區南勢168號,120.270689,23.191978
中州科技大學,[510]彰化縣員林市山腳路三段2巷6號,120.6040341,23.9575748
修平科技大學,[412]臺中市大里區工業路11號,120.7137649,24.0953128
長庚科技大學,[333]桃園市龜山區文化一路261號,121.3894973,25.0339514
臺北城市科技大學,[112]臺北市北投區學園路2號,121.468879,25.133617
大華科技大學,[307]新竹縣芎林鄉大華路1號,121.0899442,24.7770031
醒吾科技大學,[244]新北市林口區粉寮路一段101號,121.3999488,25.0820518
南榮科技大學,[737]臺南市鹽水區朝琴路178號,120.2746661,23.3245939
文藻外語大學,[807]高雄市三民區民族一路900號,120.3191403,22.6703488
華夏科技大學,[235]新北市中和區工專路111號,121.5075153,24.9810876
慈濟科技大學,[970]花蓮縣花蓮市建國路二段880號,121.5647535,23.9967593
致理科技大學,[220]新北市板橋區文化路一段313號,121.465198,25.0210015
康寧大學,[114]臺北市內湖區康寧路三段75巷137號,121.609939,25.0751696
臺北市立大學,[100]臺北市中正區愛國西路1號,121.5142953,25.0356043
國立臺灣戲曲學院,[114]臺北市內湖區內湖路二段177號,121.5866803,25.0812796
中信?融管?學院,[709]臺南市安南區臺江大道三段600號,120.1626834,23.0639816
大漢技術學院,[971]花蓮縣新城鄉大漢村樹人街1號,121.6053419,24.0392823
和春技術學院,[831]高雄市大寮區琉球里至學路288號,120.4273621,22.6059983
亞東技術學院,[220]新北市板橋區四川路二段58號,121.4531189,24.995194
南亞技術學院,[320]桃園市中壢區中山東路三段414號,121.2516681,24.9368776
稻江科技暨管理學院,[613]嘉義縣朴子市學府路二段51號,120.2897636,23.4488003
德霖技術學院,[236]新北市土城區青雲路380巷1號,121.4557677,24.972325
蘭陽技術學院,[261]宜蘭縣頭城鎮復興路79號,121.8180287,24.8641286
黎明技術學院,[243]新北市泰山區泰林路三段22號,121.4348877,25.0599688
東方設計學院,[829]高雄市湖內區東方路110號,120.2482666,22.8796783
經國管理暨健康學院,[203]基隆市中山區復興路336號,121.7277038,25.1500577
崇右技術學院,[201]基隆市信義區義七路40號,121.7544557,25.1319238
大同技術學院,[600]嘉義市東區彌陀路253號,120.4648665,23.4697165
亞太創意技術學院,[351]苗栗縣頭份市珊湖里學府路110號 ,120.9702322,24.6829439
臺灣觀光學院,[974]花蓮縣壽豐鄉豐山村中興街268號,121.4865128,23.8586595
馬偕醫學院,[252]新北市三芝區中正路三段46號,121.5023966,25.2526932
法鼓文理學院,[208]新北市金山區法鼓路700號,121.6169569,25.245412
台北海洋技術學院,[251]新北市淡水區濱海路三段150號,121.4265615,25.1922261
國立臺南護理專科學校,[700]臺南市中西區民族路二段78號,120.2075223,22.9952161
國立臺東專科學校,[950]臺東縣臺東市正氣北路889號,121.1260016,22.7573655
馬偕醫護管理專科學校,[112]臺北市北投區聖景路92號,121.4645108,25.1218803
仁德醫護管理專科學校,[356]苗栗縣後龍鎮溪洲里砂崙湖79之9號,120.776481,24.625073
樹人醫護管理專科學校,[821]高雄市路竹區環球路452號,120.2805972,22.8794276
慈惠醫護管理專科學校,[926]屏東縣南州鄉三民路367號,120.4894273,22.486071
耕莘健康管理專科學校,[231]新北市新店區民族路112號,121.5368906,24.9770572
敏惠醫護管理專科學校,[736]臺南市柳營區中山東路二段1116號,120.3307555,23.2793302
高美醫護管理專科學校,[843]高雄市美濃區成功路309號,120.551242,22.8876547
育英醫護管理專科學校,[807]高雄市三民區大昌二路420巷15號,120.3326089,22.6497392
崇仁醫護管理專科學校,[600]嘉義市東區盧厝里紅毛埤217號,120.4826403,23.478996
聖母醫護管理專科學校,[266]宜蘭縣三星鄉三星路二段265巷100號,121.7034259,24.6650043
新生醫護管理專科學校,[325]桃園市龍潭區中豐路高平段418號,121.2086908,24.8319108
